{
  "type": "FeatureCollection",
  "features": [
    {
      "type": "Feature",
      "properties": {
        "norad_id": 66753,
        "name": "ICEYE-X60",
        "group": "last-30-days",
        "lat": 67.28392030328189,
        "lon": -92.53228448241256,
        "alt_km": 508.32602710164156,
        "timestamp": "2025-12-23T16:57:11.061336+00:00",
        "meta_object_name": "ICEYE-X60",
        "meta_object_id": "2025-276CR",
        "meta_epoch": "2025-12-22T16:43:05.853792",
        "meta_mean_motion": 15.17180475,
        "meta_eccentricity": 0.00011044,
        "meta_inclination": 97.441,
        "meta_ra_of_asc_node": 68.2849,
        "meta_arg_of_pericenter": 193.8242,
        "meta_mean_anomaly": 166.2962,
        "meta_ephemeris_type": 0,
        "meta_classification_type": "U",
        "meta_norad_cat_id": 66753,
        "meta_element_set_no": 999,
        "meta_rev_at_epoch": 363,
        "meta_bstar": -0.0054396978,
        "meta_mean_motion_dot": -0.00106457,
        "meta_mean_motion_ddot": 0,
        "tle_line1": "1 66753U 25276CR  25356.69659553 -.00106457  00000+0 -54397-2 0  9992",
        "tle_line2": "2 66753  97.4410  68.2849 0001104 193.8242 166.2962 15.17180475  3639"
      },
      "geometry": {
        "type": "Point",
        "coordinates": [
          -92.53228448241256,
          67.28392030328189
        ]
      }
    },
    {
      "type": "Feature",
      "properties": {
        "norad_id": 66754,
        "name": "ICEYE-X61",
        "group": "last-30-days",
        "lat": 23.606378267828664,
        "lon": -107.43166477819629,
        "alt_km": 510.5839562728106,
        "timestamp": "2025-12-23T16:57:11.061347+00:00",
        "meta_object_name": "ICEYE-X61",
        "meta_object_id": "2025-276CS",
        "meta_epoch": "2025-12-23T03:36:36.452160",
        "meta_mean_motion": 15.17853549,
        "meta_eccentricity": 0.00022968,
        "meta_inclination": 97.4406,
        "meta_ra_of_asc_node": 68.7477,
        "meta_arg_of_pericenter": 193.1606,
        "meta_mean_anomaly": 166.9569,
        "meta_ephemeris_type": 0,
        "meta_classification_type": "U",
        "meta_norad_cat_id": 66754,
        "meta_element_set_no": 999,
        "meta_rev_at_epoch": 370,
        "meta_bstar": 0.000440698,
        "meta_mean_motion_dot": 8.861e-05,
        "meta_mean_motion_ddot": 0,
        "tle_line1": "1 66754U 25276CS  25357.15042190  .00008861  00000+0  44070-3 0  9994",
        "tle_line2": "2 66754  97.4406  68.7477 0002296 193.1606 166.9569 15.17853549  3704"
      },
      "geometry": {
        "type": "Point",
        "coordinates": [
          -107.43166477819629,
          23.606378267828664
        ]
      }
    },
    {
      "type": "Feature",
      "properties": {
        "norad_id": 66755,
        "name": "ICEYE-X62",
        "group": "last-30-days",
        "lat": 46.629409210401285,
        "lon": -102.7694888972576,
        "alt_km": 510.7122497544224,
        "timestamp": "2025-12-23T16:57:11.061359+00:00",
        "meta_object_name": "ICEYE-X62",
        "meta_object_id": "2025-276CT",
        "meta_epoch": "2025-12-22T22:57:46.373472",
        "meta_mean_motion": 15.17604649,
        "meta_eccentricity": 0.00026826,
        "meta_inclination": 97.4395,
        "meta_ra_of_asc_node": 68.5434,
        "meta_arg_of_pericenter": 290.3052,
        "meta_mean_anomaly": 69.7893,
        "meta_ephemeris_type": 0,
        "meta_classification_type": "U",
        "meta_norad_cat_id": 66755,
        "meta_element_set_no": 999,
        "meta_rev_at_epoch": 367,
        "meta_bstar": 7.2637995e-05,
        "meta_mean_motion_dot": 1.393e-05,
        "meta_mean_motion_ddot": 0,
        "tle_line1": "1 66755U 25276CT  25356.95678673  .00001393  00000+0  72638-4 0  9998",
        "tle_line2": "2 66755  97.4395  68.5434 0002682 290.3052  69.7893 15.17604649  3678"
      },
      "geometry": {
        "type": "Point",
        "coordinates": [
          -102.7694888972576,
          46.629409210401285
        ]
      }
    },
    {
      "type": "Feature",
      "properties": {
        "norad_id": 66756,
        "name": "TRANSPORTER-15CU",
        "group": "last-30-days",
        "lat": 17.537248336653875,
        "lon": -108.33216387263273,
        "alt_km": 511.50691482320235,
        "timestamp": "2025-12-23T16:57:11.061369+00:00",
        "meta_object_name": "TRANSPORTER-15CU",
        "meta_object_id": "2025-276CU",
        "meta_epoch": "2025-12-23T05:09:58.619520",
        "meta_mean_motion": 15.17950131,
        "meta_eccentricity": 0.00015219,
        "meta_inclination": 97.4413,
        "meta_ra_of_asc_node": 68.8178,
        "meta_arg_of_pericenter": 156.935,
        "meta_mean_anomaly": 203.1952,
        "meta_ephemeris_type": 0,
        "meta_classification_type": "U",
        "meta_norad_cat_id": 66756,
        "meta_element_set_no": 999,
        "meta_rev_at_epoch": 371,
        "meta_bstar": 0.00051124767,
        "meta_mean_motion_dot": 0.0001032,
        "meta_mean_motion_ddot": 0,
        "tle_line1": "1 66756U 25276CU  25357.21526180  .00010320  00000+0  51125-3 0  9991",
        "tle_line2": "2 66756  97.4413  68.8178 0001521 156.9350 203.1952 15.17950131  3712"
      },
      "geometry": {
        "type": "Point",
        "coordinates": [
          -108.33216387263273,
          17.537248336653875
        ]
      }
    },
    {
      "type": "Feature",
      "properties": {
        "norad_id": 66757,
        "name": "TRANSPORTER-15CV",
        "group": "last-30-days",
        "lat": 9.608724277619295,
        "lon": -109.42471186772337,
        "alt_km": 512.2716504195168,
        "timestamp": "2025-12-23T16:57:11.061379+00:00",
        "meta_object_name": "TRANSPORTER-15CV",
        "meta_object_id": "2025-276CV",
        "meta_epoch": "2025-12-23T05:07:55.687008",
        "meta_mean_motion": 15.18073387,
        "meta_eccentricity": 0.00016766,
        "meta_inclination": 97.4424,
        "meta_ra_of_asc_node": 68.8228,
        "meta_arg_of_pericenter": 155.0539,
        "meta_mean_anomaly": 205.0776,
        "meta_ephemeris_type": 0,
        "meta_classification_type": "U",
        "meta_norad_cat_id": 66757,
        "meta_element_set_no": 999,
        "meta_rev_at_epoch": 371,
        "meta_bstar": 0.00056559355,
        "meta_mean_motion_dot": 0.00011466,
        "meta_mean_motion_ddot": 0,
        "tle_line1": "1 66757U 25276CV  25357.21383897  .00011466  00000+0  56559-3 0  9996",
        "tle_line2": "2 66757  97.4424  68.8228 0001676 155.0539 205.0776 15.18073387  3716"
      },
      "geometry": {
        "type": "Point",
        "coordinates": [
          -109.42471186772337,
          9.608724277619295
        ]
      }
    },
    {
      "type": "Feature",
      "properties": {
        "norad_id": 66758,
        "name": "TRANSPORTER-15CW",
        "group": "last-30-days",
        "lat": 8.110862720381283,
        "lon": -109.63520236429731,
        "alt_km": 512.8248862924947,
        "timestamp": "2025-12-23T16:57:11.061389+00:00",
        "meta_object_name": "TRANSPORTER-15CW",
        "meta_object_id": "2025-276CW",
        "meta_epoch": "2025-12-23T05:07:32.033280",
        "meta_mean_motion": 15.18079088,
        "meta_eccentricity": 0.00013391,
        "meta_inclination": 97.4393,
        "meta_ra_of_asc_node": 68.8133,
        "meta_arg_of_pericenter": 138.3607,
        "meta_mean_anomaly": 221.773,
        "meta_ephemeris_type": 0,
        "meta_classification_type": "U",
        "meta_norad_cat_id": 66758,
        "meta_element_set_no": 999,
        "meta_rev_at_epoch": 371,
        "meta_bstar": 0.00053673981,
        "meta_mean_motion_dot": 0.00010879,
        "meta_mean_motion_ddot": 0,
        "tle_line1": "1 66758U 25276CW  25357.21356520  .00010879  00000+0  53674-3 0  9992",
        "tle_line2": "2 66758  97.4393  68.8133 0001339 138.3607 221.7730 15.18079088  3712"
      },
      "geometry": {
        "type": "Point",
        "coordinates": [
          -109.63520236429731,
          8.110862720381283
        ]
      }
    },
    {
      "type": "Feature",
      "properties": {
        "norad_id": 66759,
        "name": "TRANSPORTER-15CX",
        "group": "last-30-days",
        "lat": -1.234168322480762,
        "lon": -110.86499693966145,
        "alt_km": 513.2126623696713,
        "timestamp": "2025-12-23T16:57:11.061399+00:00",
        "meta_object_name": "TRANSPORTER-15CX",
        "meta_object_id": "2025-276CX",
        "meta_epoch": "2025-12-23T05:05:07.161216",
        "meta_mean_motion": 15.18222126,
        "meta_eccentricity": 0.00021116,
        "meta_inclination": 97.4381,
        "meta_ra_of_asc_node": 68.8101,
        "meta_arg_of_pericenter": 148.7609,
        "meta_mean_anomaly": 211.3751,
        "meta_ephemeris_type": 0,
        "meta_classification_type": "U",
        "meta_norad_cat_id": 66759,
        "meta_element_set_no": 999,
        "meta_rev_at_epoch": 371,
        "meta_bstar": 0.00067133628,
        "meta_mean_motion_dot": 0.00013685,
        "meta_mean_motion_ddot": 0,
        "tle_line1": "1 66759U 25276CX  25357.21188844  .00013685  00000+0  67134-3 0  9999",
        "tle_line2": "2 66759  97.4381  68.8101 0002111 148.7609 211.3751 15.18222126  3712"
      },
      "geometry": {
        "type": "Point",
        "coordinates": [
          -110.86499693966145,
          -1.234168322480762
        ]
      }
    }
  ]
}